RESOURCESAT-2A          
1 41877U 16074A   26095.85843027  .00000002  00000+0  20881-4 0  9998
2 41877  98.7558 169.9432 0001086 307.4969  52.6109 14.21611408484027
CARTOSAT-2D             
1 41948U 17008A   26095.84084461 -.00000181  00000+0 -53940-5 0  9996
2 41948  97.4176 156.4691 0005610 127.1160 233.0588 15.19238421506594
SENTINEL-2B             
1 42063U 17013A   26095.82987494  .00000250  00000+0  11214-3 0  9998
2 42063  98.5668 171.6342 0001200  94.5363 265.5957 14.30818487474295
CARTOSAT-2E             
1 42767U 17036C   26095.85771742 -.00000548  00000+0 -22755-4 0  9999
2 42767  97.4340 156.8236 0003454 179.7470 180.3767 15.19347556487161
FORMOSAT-5              
1 42920U 17049A   26095.84659938  .00000299  00000+0  87115-4 0  9997
2 42920  98.2274 172.7593 0010590 312.5995  47.4306 14.50711105456187
SENTINEL-5P             
1 42969U 17064A   26095.81243398  .00000115  00000+0  75688-4 0  9992
2 42969  98.7919  38.4650 0001230  88.3018 271.8299 14.19506273439298
SKYSAT-C11              
1 42987U 17068A   26095.83816820  .00031742  00000+0  48691-3 0  9997
2 42987  97.4257 241.7690 0000537 165.1674 194.9596 15.54250971471992
SKYSAT-C10              
1 42988U 17068B   26095.82028321  .00012615  00000+0  39338-3 0  9994
2 42988  97.4396 232.0807 0001023 110.1182 250.0170 15.33373050471268
SKYSAT-C9               
1 42989U 17068C   26095.62543127  .00017309  00000+0  43761-3 0  9999
2 42989  97.4316 232.1539 0009266  45.3142 314.8857 15.39810989471585
SKYSAT-C8               
1 42990U 17068D   26095.63683428  .00014945  00000+0  43474-3 0  9995
2 42990  97.4410 231.4290 0001045  94.5672 265.5691 15.35535036471175
SKYSAT-C7               
1 42991U 17068E   26095.82326725  .00013883  00000+0  40445-3 0  9996
2 42991  97.4421 232.6019 0006149  18.6284 341.5183 15.35488932471269
SKYSAT-C6               
1 42992U 17068F   26095.33743785  .00013863  00000+0  43458-3 0  9997
2 42992  97.4455 232.3168 0003464  62.5831 297.5763 15.33178084471156
CARTOSAT-2F             
1 43111U 18004A   26095.82390207  .00004373  00000+0  21069-3 0  9993
2 43111  97.4101 156.4850 0001990 126.9618 233.1800 15.19245322456348
GAOFEN-1 02             
1 43259U 18031A   26095.85151708 -.00000245  00000+0 -27727-4 0  9994
2 43259  98.0583 158.5572 0002037 218.4927 141.6138 14.76456599432027
GAOFEN-1 03             
1 43260U 18031B   26095.82965325  .00001229  00000+0  18402-3 0  9991
2 43260  98.0579 158.4018 0001576 325.3912  34.7195 14.76476147432012
GAOFEN-1 04             
1 43262U 18031D   26095.87316605  .00001663  00000+0  24656-3 0  9999
2 43262  98.0590 158.6270 0001205  57.9429 302.1897 14.76441869432013
SENTINEL-3B             
1 43437U 18039A   26095.81564226  .00000177  00000+0  91078-4 0  9991
2 43437  98.6295 164.3703 0001549 111.4500 248.6846 14.26736671413804
