[{"OBJECT_NAME":"RESOURCESAT-2A","OBJECT_ID":"2016-074A","EPOCH":"2026-04-05T20:36:08.375328","MEAN_MOTION":14.21611408,"ECCENTRICITY":0.0001086,"INCLINATION":98.7558,"RA_OF_ASC_NODE":169.9432,"ARG_OF_PERICENTER":307.4969,"MEAN_ANOMALY":52.6109,"EPHEMERIS_TYPE":0,"CLASSIFICATION_TYPE":"U","NORAD_CAT_ID":41877,"ELEMENT_SET_NO":999,"REV_AT_EPOCH":48402,"BSTAR":2.0881e-5,"MEAN_MOTION_DOT":2.0e-8,"MEAN_MOTION_DDOT":0},{"OBJECT_NAME":"CARTOSAT-2D","OBJECT_ID":"2017-008A","EPOCH":"2026-04-05T20:10:48.974304","MEAN_MOTION":15.19238421,"ECCENTRICITY":0.000561,"INCLINATION":97.4176,"RA_OF_ASC_NODE":156.4691,"ARG_OF_PERICENTER":127.116,"MEAN_ANOMALY":233.0588,"EPHEMERIS_TYPE":0,"CLASSIFICATION_TYPE":"U","NORAD_CAT_ID":41948,"ELEMENT_SET_NO":999,"REV_AT_EPOCH":50659,"BSTAR":-5.394e-6,"MEAN_MOTION_DOT":-1.81e-6,"MEAN_MOTION_DDOT":0},{"OBJECT_NAME":"SENTINEL-2B","OBJECT_ID":"2017-013A","EPOCH":"2026-04-05T19:55:01.194816","MEAN_MOTION":14.30818487,"ECCENTRICITY":0.00012,"INCLINATION":98.5668,"RA_OF_ASC_NODE":171.6342,"ARG_OF_PERICENTER":94.5363,"MEAN_ANOMALY":265.5957,"EPHEMERIS_TYPE":0,"CLASSIFICATION_TYPE":"U","NORAD_CAT_ID":42063,"ELEMENT_SET_NO":999,"REV_AT_EPOCH":47429,"BSTAR":0.00011214,"MEAN_MOTION_DOT":2.5e-6,"MEAN_MOTION_DDOT":0},{"OBJECT_NAME":"CARTOSAT-2E","OBJECT_ID":"2017-036C","EPOCH":"2026-04-05T20:35:06.785088","MEAN_MOTION":15.19347556,"ECCENTRICITY":0.0003454,"INCLINATION":97.434,"RA_OF_ASC_NODE":156.8236,"ARG_OF_PERICENTER":179.747,"MEAN_ANOMALY":180.3767,"EPHEMERIS_TYPE":0,"CLASSIFICATION_TYPE":"U","NORAD_CAT_ID":42767,"ELEMENT_SET_NO":999,"REV_AT_EPOCH":48716,"BSTAR":-2.2755e-5,"MEAN_MOTION_DOT":-5.48e-6,"MEAN_MOTION_DDOT":0},{"OBJECT_NAME":"FORMOSAT-5","OBJECT_ID":"2017-049A","EPOCH":"2026-04-05T20:19:06.186432","MEAN_MOTION":14.50711105,"ECCENTRICITY":0.001059,"INCLINATION":98.2274,"RA_OF_ASC_NODE":172.7593,"ARG_OF_PERICENTER":312.5995,"MEAN_ANOMALY":47.4306,"EPHEMERIS_TYPE":0,"CLASSIFICATION_TYPE":"U","NORAD_CAT_ID":42920,"ELEMENT_SET_NO":999,"REV_AT_EPOCH":45618,"BSTAR":8.7115e-5,"MEAN_MOTION_DOT":2.99e-6,"MEAN_MOTION_DDOT":0},{"OBJECT_NAME":"SENTINEL-5P","OBJECT_ID":"2017-064A","EPOCH":"2026-04-05T19:29:54.295872","MEAN_MOTION":14.19506273,"ECCENTRICITY":0.000123,"INCLINATION":98.7919,"RA_OF_ASC_NODE":38.465,"ARG_OF_PERICENTER":88.3018,"MEAN_ANOMALY":271.8299,"EPHEMERIS_TYPE":0,"CLASSIFICATION_TYPE":"U","NORAD_CAT_ID":42969,"ELEMENT_SET_NO":999,"REV_AT_EPOCH":43929,"BSTAR":7.5688e-5,"MEAN_MOTION_DOT":1.15e-6,"MEAN_MOTION_DDOT":0},{"OBJECT_NAME":"SKYSAT-C11","OBJECT_ID":"2017-068A","EPOCH":"2026-04-05T20:06:57.732480","MEAN_MOTION":15.54250971,"ECCENTRICITY":5.37e-5,"INCLINATION":97.4257,"RA_OF_ASC_NODE":241.769,"ARG_OF_PERICENTER":165.1674,"MEAN_ANOMALY":194.9596,"EPHEMERIS_TYPE":0,"CLASSIFICATION_TYPE":"U","NORAD_CAT_ID":42987,"ELEMENT_SET_NO":999,"REV_AT_EPOCH":47199,"BSTAR":0.00048691,"MEAN_MOTION_DOT":0.00031742,"MEAN_MOTION_DDOT":0},{"OBJECT_NAME":"SKYSAT-C10","OBJECT_ID":"2017-068B","EPOCH":"2026-04-05T19:41:12.469344","MEAN_MOTION":15.3337305,"ECCENTRICITY":0.0001023,"INCLINATION":97.4396,"RA_OF_ASC_NODE":232.0807,"ARG_OF_PERICENTER":110.1182,"MEAN_ANOMALY":250.017,"EPHEMERIS_TYPE":0,"CLASSIFICATION_TYPE":"U","NORAD_CAT_ID":42988,"ELEMENT_SET_NO":999,"REV_AT_EPOCH":47126,"BSTAR":0.00039338,"MEAN_MOTION_DOT":0.00012615,"MEAN_MOTION_DDOT":0},{"OBJECT_NAME":"SKYSAT-C9","OBJECT_ID":"2017-068C","EPOCH":"2026-04-05T15:00:37.261728","MEAN_MOTION":15.39810989,"ECCENTRICITY":0.0009266,"INCLINATION":97.4316,"RA_OF_ASC_NODE":232.1539,"ARG_OF_PERICENTER":45.3142,"MEAN_ANOMALY":314.8857,"EPHEMERIS_TYPE":0,"CLASSIFICATION_TYPE":"U","NORAD_CAT_ID":42989,"ELEMENT_SET_NO":999,"REV_AT_EPOCH":47158,"BSTAR":0.00043761,"MEAN_MOTION_DOT":0.00017309,"MEAN_MOTION_DDOT":0},{"OBJECT_NAME":"SKYSAT-C8","OBJECT_ID":"2017-068D","EPOCH":"2026-04-05T15:17:02.481792","MEAN_MOTION":15.35535036,"ECCENTRICITY":0.0001045,"INCLINATION":97.441,"RA_OF_ASC_NODE":231.429,"ARG_OF_PERICENTER":94.5672,"MEAN_ANOMALY":265.5691,"EPHEMERIS_TYPE":0,"CLASSIFICATION_TYPE":"U","NORAD_CAT_ID":42990,"ELEMENT_SET_NO":999,"REV_AT_EPOCH":47117,"BSTAR":0.00043474,"MEAN_MOTION_DOT":0.00014945,"MEAN_MOTION_DDOT":0},{"OBJECT_NAME":"SKYSAT-C7","OBJECT_ID":"2017-068E","EPOCH":"2026-04-05T19:45:30.290400","MEAN_MOTION":15.35488932,"ECCENTRICITY":0.0006149,"INCLINATION":97.4421,"RA_OF_ASC_NODE":232.6019,"ARG_OF_PERICENTER":18.6284,"MEAN_ANOMALY":341.5183,"EPHEMERIS_TYPE":0,"CLASSIFICATION_TYPE":"U","NORAD_CAT_ID":42991,"ELEMENT_SET_NO":999,"REV_AT_EPOCH":47126,"BSTAR":0.00040445,"MEAN_MOTION_DOT":0.00013883,"MEAN_MOTION_DDOT":0},{"OBJECT_NAME":"SKYSAT-C6","OBJECT_ID":"2017-068F","EPOCH":"2026-04-05T08:05:54.630240","MEAN_MOTION":15.33178084,"ECCENTRICITY":0.00034643,"INCLINATION":97.4455,"RA_OF_ASC_NODE":232.3168,"ARG_OF_PERICENTER":62.5831,"MEAN_ANOMALY":297.5763,"EPHEMERIS_TYPE":0,"CLASSIFICATION_TYPE":"U","NORAD_CAT_ID":42992,"ELEMENT_SET_NO":999,"REV_AT_EPOCH":47115,"BSTAR":0.00043457739,"MEAN_MOTION_DOT":0.00013863,"MEAN_MOTION_DDOT":0},{"OBJECT_NAME":"CARTOSAT-2F","OBJECT_ID":"2018-004A","EPOCH":"2026-04-05T19:46:25.138848","MEAN_MOTION":15.19245322,"ECCENTRICITY":0.000199,"INCLINATION":97.4101,"RA_OF_ASC_NODE":156.485,"ARG_OF_PERICENTER":126.9618,"MEAN_ANOMALY":233.18,"EPHEMERIS_TYPE":0,"CLASSIFICATION_TYPE":"U","NORAD_CAT_ID":43111,"ELEMENT_SET_NO":999,"REV_AT_EPOCH":45634,"BSTAR":0.00021069,"MEAN_MOTION_DOT":4.373e-5,"MEAN_MOTION_DDOT":0},{"OBJECT_NAME":"GAOFEN-1 02","OBJECT_ID":"2018-031A","EPOCH":"2026-04-05T20:26:11.075712","MEAN_MOTION":14.76456599,"ECCENTRICITY":0.0002037,"INCLINATION":98.0583,"RA_OF_ASC_NODE":158.5572,"ARG_OF_PERICENTER":218.4927,"MEAN_ANOMALY":141.6138,"EPHEMERIS_TYPE":0,"CLASSIFICATION_TYPE":"U","NORAD_CAT_ID":43259,"ELEMENT_SET_NO":999,"REV_AT_EPOCH":43202,"BSTAR":-2.7727e-5,"MEAN_MOTION_DOT":-2.45e-6,"MEAN_MOTION_DDOT":0},{"OBJECT_NAME":"GAOFEN-1 03","OBJECT_ID":"2018-031B","EPOCH":"2026-04-05T19:54:42.040800","MEAN_MOTION":14.76476147,"ECCENTRICITY":0.0001576,"INCLINATION":98.0579,"RA_OF_ASC_NODE":158.4018,"ARG_OF_PERICENTER":325.3912,"MEAN_ANOMALY":34.7195,"EPHEMERIS_TYPE":0,"CLASSIFICATION_TYPE":"U","NORAD_CAT_ID":43260,"ELEMENT_SET_NO":999,"REV_AT_EPOCH":43201,"BSTAR":0.00018402,"MEAN_MOTION_DOT":1.229e-5,"MEAN_MOTION_DDOT":0},{"OBJECT_NAME":"GAOFEN-1 04","OBJECT_ID":"2018-031D","EPOCH":"2026-04-05T20:57:21.546720","MEAN_MOTION":14.76441869,"ECCENTRICITY":0.0001205,"INCLINATION":98.059,"RA_OF_ASC_NODE":158.627,"ARG_OF_PERICENTER":57.9429,"MEAN_ANOMALY":302.1897,"EPHEMERIS_TYPE":0,"CLASSIFICATION_TYPE":"U","NORAD_CAT_ID":43262,"ELEMENT_SET_NO":999,"REV_AT_EPOCH":43201,"BSTAR":0.00024656,"MEAN_MOTION_DOT":1.663e-5,"MEAN_MOTION_DDOT":0},{"OBJECT_NAME":"SENTINEL-3B","OBJECT_ID":"2018-039A","EPOCH":"2026-04-05T19:34:31.491264","MEAN_MOTION":14.26736671,"ECCENTRICITY":0.0001549,"INCLINATION":98.6295,"RA_OF_ASC_NODE":164.3703,"ARG_OF_PERICENTER":111.45,"MEAN_ANOMALY":248.6846,"EPHEMERIS_TYPE":0,"CLASSIFICATION_TYPE":"U","NORAD_CAT_ID":43437,"ELEMENT_SET_NO":999,"REV_AT_EPOCH":41380,"BSTAR":9.1078e-5,"MEAN_MOTION_DOT":1.77e-6,"MEAN_MOTION_DDOT":0}]
